EOSSAT-1                
1 55053U 23001AW  26068.73619225  .00007695  00000+0  24844-3 0  9992
2 55053  97.3357 130.2294 0011263 110.3168 249.9285 15.32339828176689
STARLINK-35322          
1 66332U 25253P   26068.41128703  .00030146  00000+0  11008-2 0  9990
2 66332  42.9972 213.9277 0002747 285.6819  74.3729 15.27571257 20203
